NORAD_CAT_ID,OBJECT_NAME,OBJECT_TYPE,EPOCH,MEAN_MOTION,ECCENTRICITY,INCLINATION,RA_OF_ASC_NODE,ARG_OF_PERICENTER,MEAN_ANOMALY,BSTAR,MEAN_MOTION_DOT,MEAN_MOTION_DDOT,TLE_LINE0,TLE_LINE1,TLE_LINE2,SEMIMAJOR_AXIS,PERIOD,APOGEE,PERIGEE,DECAYED
55944.0,STARLINK-5926,PAYLOAD,2023-06-14 02:20:31,15.69896533,0.0003305,69.9978,292.7205,270.5487,89.533,5.9487e-05,6.938e-05,0.0,0 STARLINK-5926,1 55944U 23037AG  23165.09759237  .00006938  00000-0  59487-4 0  9994,2 55944  69.9978 292.7205 0003305 270.5487  89.5330 15.69896533 14398,6737.33,91.726,361.422,356.968,0.0
55944.0,STARLINK-5926,PAYLOAD,2023-06-14 08:27:31,15.69929666,0.0003309,69.9983,292.004,270.1438,89.9379,8.6241e-06,8.25e-06,0.0,0 STARLINK-5926,1 55944U 23037AG  23165.35244711  .00000825  00000-0  86241-5 0  9997,2 55944  69.9983 292.0040 0003309 270.1438  89.9379 15.69929666 14436,6737.235,91.724,361.33,356.871,0.0
55944.0,STARLINK-5926,PAYLOAD,2023-06-15 01:16:48,15.69921235,0.0003446,69.9982,290.0344,274.2423,85.8378,1.4405e-05,1.519e-05,0.0,0 STARLINK-5926,1 55944U 23037AG  23166.05333621  .00001519  00000-0  14405-4 0  9997,2 55944  69.9982 290.0344 0003446 274.2423  85.8378 15.69921235 14541,6737.259,91.724,361.446,356.803,0.0
55944.0,STARLINK-5926,PAYLOAD,2023-06-15 11:59:03,15.69924894,0.000344,69.998,288.7796,271.1557,88.9245,9.1112e-06,8.83e-06,0.0,0 STARLINK-5926,1 55944U 23037AG  23166.49935131  .00000883  00000-0  91112-5 0  9993,2 55944  69.9980 288.7796 0003440 271.1557  88.9245 15.69924894 14273,6737.249,91.724,361.431,356.796,0.0
55944.0,STARLINK-5926,PAYLOAD,2023-06-15 18:06:03,15.69933925,0.0003775,69.9981,288.0636,277.669,82.4077,1.8889e-05,2.06e-05,0.0,0 STARLINK-5926,1 55944U 23037AG  23166.75421060  .00002060  00000-0  18889-4 0  9991,2 55944  69.9981 288.0636 0003775 277.6690  82.4077 15.69933925 14659,6737.223,91.724,361.631,356.545,0.0
55944.0,STARLINK-5926,PAYLOAD,2023-06-16 01:44:49,15.69923693,0.0003574,69.9981,287.1674,276.2171,83.8618,2.0251e-05,2.223e-05,0.0,0 STARLINK-5926,1 55944U 23037AG  23167.07279890  .00002223  00000-0  20251-4 0  9996,2 55944  69.9981 287.1674 0003574 276.2171  83.8618 15.69923693 14700,6737.252,91.724,361.525,356.709,0.0
55944.0,STARLINK-5926,PAYLOAD,2023-06-16 13:58:50,15.69934034,0.000366,69.9979,285.7341,273.4427,86.635,1.2744e-05,1.32e-05,0.0,0 STARLINK-5926,1 55944U 23037AG  23167.58252589  .00001320  00000-0  12744-4 0  9993,2 55944  69.9979 285.7341 0003660 273.4427  86.6350 15.69934034 14447,6737.223,91.724,361.554,356.622,0.0
55944.0,STARLINK-5926,PAYLOAD,2023-06-16 18:34:07,15.69906411,0.0003489,69.9984,285.1967,278.3801,81.6999,-8.1826e-06,-1.196e-05,0.0,0 STARLINK-5926,1 55944U 23037AG  23167.77369786 -.00001196  00000-0 -81826-5 0  9993,2 55944  69.9984 285.1967 0003489 278.3801  81.6999 15.69906411 14475,6737.302,91.725,361.517,356.816,0.0
55944.0,STARLINK-5926,PAYLOAD,2023-06-17 11:23:23,15.69898235,0.000353,69.9992,283.2261,288.5603,71.5209,1.3851e-05,1.451e-05,0.0,0 STARLINK-5926,1 55944U 23037AG  23168.47457667  .00001451  00000-0  13851-4 0  9991,2 55944  69.9992 283.2261 0003530 288.5603  71.5209 15.69898235 14588,6737.325,91.726,361.568,356.812,0.0
55944.0,STARLINK-5926,PAYLOAD,2023-06-17 17:30:23,15.69916638,0.0003538,69.9975,282.5107,272.7939,87.2851,1.7016e-05,1.833e-05,0.0,0 STARLINK-5926,1 55944U 23037AG  23168.72944250  .00001833  00000-0  17016-4 0  9999,2 55944  69.9975 282.5107 0003538 272.7939  87.2851 15.69916638 14962,6737.272,91.725,361.521,356.754,0.0
55944.0,STARLINK-5926,PAYLOAD,2023-06-18 01:09:08,15.69931512,0.0003659,69.9981,281.6143,274.6321,85.4457,1.3498e-05,1.411e-05,0.0,0 STARLINK-5926,1 55944U 23037AG  23169.04801514  .00001411  00000-0  13498-4 0  9992,2 55944  69.9981 281.6143 0003659 274.6321  85.4457 15.69931512 15016,6737.23,91.724,361.56,356.63,0.0
55944.0,STARLINK-5926,PAYLOAD,2023-06-18 07:16:09,15.69927371,0.0003556,69.9991,280.898,274.3187,85.7602,8.0584e-06,7.56e-06,0.0,0 STARLINK-5926,1 55944U 23037AG  23169.30288568  .00000756  00000-0  80584-5 0  9991,2 55944  69.9991 280.8980 0003556 274.3187  85.7602 15.69927371 14719,6737.242,91.724,361.503,356.711,0.0
55944.0,STARLINK-5926,PAYLOAD,2023-06-18 16:26:39,15.69927428,0.0003434,69.9989,279.8232,271.5423,88.538,1.315e-05,1.369e-05,0.0,0 STARLINK-5926,1 55944U 23037AG  23169.68518450  .00001369  00000-0  13150-4 0  9993,2 55944  69.9989 279.8232 0003434 271.5423  88.5380 15.69927428 15113,6737.242,91.724,361.42,356.793,0.0
55944.0,STARLINK-5926,PAYLOAD,2023-06-18 22:00:00,15.69958074,0.0003648,70.0006,279.1707,274.0448,313.9583,-0.00076451,-0.00091282,0.0,0 STARLINK-5926,1 55944U 23037AG  23169.91667824 -.00091282  00000-0 -76451-3 0  9996,2 55944  70.0006 279.1707 0003648 274.0448 313.9583 15.69958074 15142,6737.154,91.722,361.477,356.561,0.0
55944.0,STARLINK-5926,PAYLOAD,2023-06-19 13:51:12,15.69920991,0.0003306,69.9996,277.3144,278.5956,81.4865,2.078e-05,2.286e-05,0.0,0 STARLINK-5926,1 55944U 23037AG  23170.57722336  .00002286  00000-0  20780-4 0  9999,2 55944  69.9996 277.3144 0003306 278.5956  81.4865 15.69920991 14917,6737.26,91.724,361.352,356.898,0.0
55944.0,STARLINK-5926,PAYLOAD,2023-06-19 18:26:27,15.69924399,0.0004148,69.9986,276.7765,275.567,84.5052,1.9525e-05,2.135e-05,0.0,0 STARLINK-5926,1 55944U 23037AG  23170.76837129  .00002135  00000-0  19525-4 0  9995,2 55944  69.9986 276.7765 0004148 275.5670  84.5052 15.69924399 14944,6737.25,91.724,361.91,356.321,0.0
55944.0,STARLINK-5926,PAYLOAD,2023-06-20 00:33:28,15.69914365,0.0003726,69.9983,276.0602,273.918,86.159,4.5899e-06,3.39e-06,0.0,0 STARLINK-5926,1 55944U 23037AG  23171.02324481  .00000339  00000-0  45899-5 0  9995,2 55944  69.9983 276.0602 0003726 273.9180  86.1590 15.69914365 15323,6737.279,91.725,361.654,356.634,0.0
55944.0,STARLINK-5926,PAYLOAD,2023-06-20 08:12:15,15.699329,0.0003387,69.9998,275.1648,272.6507,87.4301,-2.738e-05,-3.505e-05,0.0,0 STARLINK-5926,1 55944U 23037AG  23171.34184086 -.00003505  00000-0 -27380-4 0  9999,2 55944  69.9998 275.1648 0003387 272.6507  87.4301 15.69932900 15038,6737.226,91.724,361.373,356.809,0.0
55944.0,STARLINK-5926,PAYLOAD,2023-06-21 11:45:57,15.68556146,0.0003013,69.9984,271.9466,268.724,91.361,-0.0014322,-0.00159912,0.0,0 STARLINK-5926,1 55944U 23037AG  23172.49024440 -.00159912  00000-0 -14322-2 0  9997,2 55944  69.9984 271.9466 0003013 268.7240  91.3610 15.68556146 15558,6741.168,91.804,365.064,361.002,0.0
55944.0,STARLINK-5926,PAYLOAD,2023-06-21 22:00:01,15.66641464,0.0003304,69.9997,270.7491,272.3273,335.727,-0.0099246,-0.00948161,0.0,0 STARLINK-5926,1 55944U 23037AG  23172.91668981 -.00948161  00000-0 -99246-2 0  9998,2 55944  69.9997 270.7491 0003304 272.3273 335.7270 15.66641464 15628,6746.659,91.916,370.753,366.295,0.0
55944.0,STARLINK-5926,PAYLOAD,2023-06-22 14:00:01,15.65301003,0.0003447,69.9997,268.8859,275.002,130.1819,-0.0096754,-0.00881854,0.0,0 STARLINK-5926,1 55944U 23037AG  23173.58334491 -.00881854  00000-0 -96754-2 0  9994,2 55944  69.9997 268.8859 0003447 275.0020 130.1819 15.65301003 15720,6750.51,91.995,374.702,370.048,0.0
55944.0,STARLINK-5926,PAYLOAD,2023-06-23 06:00:00,15.64038537,0.0003422,69.9999,267.0265,266.8355,292.3842,-0.010873,-0.00936973,0.0,0 STARLINK-5926,1 55944U 23037AG  23174.25001157 -.00936973  00000-0 -10873-1 0  9999,2 55944  69.9999 267.0265 0003422 266.8355 292.3842 15.64038537 15822,6754.142,92.069,378.319,373.696,0.0
55944.0,STARLINK-5926,PAYLOAD,2023-06-24 14:00:01,15.61377592,0.0003523,69.9993,263.3177,276.4735,221.489,-0.011082,-0.00866769,0.0,0 STARLINK-5926,1 55944U 23037AG  23175.58334491 -.00866769  00000-0 -11082-1 0  9994,2 55944  69.9993 263.3177 0003523 276.4735 221.4890 15.61377592 16032,6761.814,92.226,386.061,381.297,0.0
55944.0,STARLINK-5926,PAYLOAD,2023-06-25 06:00:00,15.60134062,0.0003496,69.9994,261.4691,265.6468,16.958,-0.012924,-0.00954571,0.0,0 STARLINK-5926,1 55944U 23037AG  23176.25001157 -.00954571  00000-0 -12924-1 0  9994,2 55944  69.9994 261.4691 0003496 265.6468  16.9580 15.60134062 16142,6765.406,92.3,389.637,384.906,0.0
55944.0,STARLINK-5926,PAYLOAD,2023-06-25 22:00:01,15.58796163,0.0003484,69.9988,259.6236,273.0251,151.2,-0.013079,-0.00921157,0.0,0 STARLINK-5926,1 55944U 23037AG  23176.91668981 -.00921157  00000-0 -13079-1 0  9997,2 55944  69.9988 259.6236 0003484 273.0251 151.2000 15.58796163 16243,6769.277,92.379,393.5,388.784,0.0
55944.0,STARLINK-5926,PAYLOAD,2023-06-27 06:00:00,15.5622513,0.0003395,69.9994,255.9437,268.3948,69.435,-0.015143,-0.00963758,0.0,0 STARLINK-5926,1 55944U 23037AG  23178.25001157 -.00963758  00000-0 -15143-1 0  9999,2 55944  69.9994 255.9437 0003395 268.3948  69.4350 15.56225130 16453,6776.731,92.532,400.896,396.295,0.0
55944.0,STARLINK-5926,PAYLOAD,2023-06-27 22:00:00,15.54863764,0.0003233,69.9991,254.1089,274.364,195.6386,-0.014529,-0.00886507,0.0,0 STARLINK-5926,1 55944U 23037AG  23178.91667824 -.00886507  00000-0 -14529-1 0  9994,2 55944  69.9991 254.1089 0003233 274.3640 195.6386 15.54863764 16552,6780.686,92.613,404.743,400.358,0.0
55944.0,STARLINK-5926,PAYLOAD,2023-06-28 14:00:01,15.53561352,0.0003224,69.9996,252.278,273.7306,325.2898,-0.015105,-0.00879367,0.0,0 STARLINK-5926,1 55944U 23037AG  23179.58334491 -.00879367  00000-0 -15105-1 0  9996,2 55944  69.9996 252.2780 0003224 273.7306 325.2898 15.53561352 16664,6784.475,92.69,408.527,404.153,0.0
55944.0,STARLINK-5926,PAYLOAD,2023-06-29 22:00:00,15.51218379,0.0003248,69.9996,248.6264,272.1489,215.5985,-0.00028649,-0.00016953,0.0,0 STARLINK-5926,1 55944U 23037AG  23180.91667824 -.00016953  00000-0 -28649-3 0  9997,2 55944  69.9996 248.6264 0003248 272.1489 215.5985 15.51218379 16867,6791.305,92.83,415.375,410.964,0.0
55944.0,STARLINK-5926,PAYLOAD,2023-07-01 06:00:00,15.51259402,0.0003338,70.0001,244.9816,269.9164,101.4594,-0.00083993,-0.00049258,0.0,0 STARLINK-5926,1 55944U 23037AG  23182.25001157 -.00049258  00000-0 -83993-3 0  9994,2 55944  70.0001 244.9816 0003338 269.9164 101.4594 15.51259402 17078,6791.185,92.828,415.317,410.783,0.0
